satname,norad_id,inclination_deg,eccentricity,mean_motion_rev_per_day,perigee_km,apogee_km,l1,l2
STARLINK-1451,45668,53.0486,0.000277,15.07639497,541.4980110985416,545.3325510622608,1 45668U 20035M   26025.36127570  .00024429  00000+0  15988-2 0  9998,2 45668  53.0486 261.3242 0002770 125.2651 234.8598 15.07639497312203
STARLINK-1452,45669,53.038,0.0004044,15.37396387,451.0489742796035,456.5746544806743,1 45669U 20035N   26026.53584551  .00082415  00000+0  22014-2 0  9992,2 45669  53.0380 221.4835 0004044 165.4812 194.6307 15.37396387312867
STARLINK-1453,45670,53.0514,0.0006375,15.43120126,432.5627258651093,441.2519073687954,1 45670U 20035P   26026.91670139  .00172653  00000+0  37632-2 0  9990,2 45670  53.0514 213.1901 0006375 164.0975  88.6337 15.43120126  5872
STARLINK-1454,45671,53.0645,0.0001092,15.38690837,449.2339840275654,450.7252446961429,1 45671U 20035Q   26026.91670139  .01063975  00000+0  25152-1 0  9991,2 45671  53.0645 252.2721 0001092  82.6064 138.3434 15.38690837  5727
STARLINK-1456,45673,53.0607,0.0006219,15.40621415,440.0312814673589,448.51699644199107,1 45673U 20035S   26026.59780425  .00044071  00000+0  10689-2 0  9992,2 45673  53.0607 247.0771 0006219 152.9306 207.2023 15.40621415312517
STARLINK-1457,45674,53.0506,4.11e-05,15.64702821,373.8160604938239,374.3710938472668,1 45674U 20035T   26026.91670139  .00226670  00000+0  22349-2 0  9992,2 45674  53.0506 229.7136 0000411  89.8419 312.8174 15.64702821  5920
STARLINK-1458,45675,53.0535,0.0001177,15.29056466,477.82454190913086,479.43862523370444,1 45675U 20035U   26026.91670139  .01718313  00000+0  54187-1 0  9998,2 45675  53.0535 252.8272 0001177  94.6616 141.2131 15.29056466  5783
STARLINK-1460,45676,53.0544,0.0001419,15.06409638,546.199316245099,548.1647217826949,1 45676U 20035V   26026.77000509  .00002454  00000+0  18353-3 0  9999,2 45676  53.0544 254.8030 0001419  79.9782 280.1367 15.06409638312375
STARLINK-1392,45677,53.0514,0.0001612,15.06400135,546.0947780619099,548.327510303594,1 45677U 20035W   26026.64836451 -.00005184  00000+0 -32937-3 0  9998,2 45677  53.0514 255.3474 0001612  92.6368 267.4806 15.06400135312399
STARLINK-1394,45679,53.053,0.0006293,15.41415445,437.6391145859852,446.22285214985186,1 45679U 20035Y   26026.91670139  .00109998  00000+0  25623-2 0  9998,2 45679  53.0530 235.5031 0006293 139.6641 354.9457 15.41415445  5925
STARLINK-1402,45685,53.0521,0.0010743,15.37622053,445.80450209133505,460.4821910439705,1 45685U 20035AE  26026.83682828  .00095871  00000+0  25323-2 0  9995,2 45685  53.0521 221.6706 0010743 123.7031 236.4997 15.37622053312899
STARLINK-1404,45686,53.1298,0.0001813,15.23624837,493.67180435525825,496.16397405808493,1 45686U 20035AF  26026.83335647  .01753011  00000+0  65994-1 0  9995,2 45686  53.1298 243.9692 0001813 104.5362   0.0092 15.23624837  5825
STARLINK-1413,45689,53.1332,0.0001319,15.24322296,491.91492303321775,493.72748180701547,1 45689U 20035AJ  26026.83335647  .01712403  00000+0  63280-1 0  9994,2 45689  53.1332 243.9114 0001319  93.8255 299.9451 15.24322296  5821
STARLINK-1417,45693,53.0523,0.0007722,15.09976871,530.9313040214092,541.6099151336393,1 45693U 20035AN  26026.60327214  .00028028  00000+0  17168-2 0  9992,2 45693  53.0523 244.6812 0007722 111.1550 249.0266 15.09976871312532
STARLINK-1420,45695,53.055,0.0001349,15.37142722,453.6416847983137,455.48514737057303,1 45695U 20035AQ  26026.83335647  .01668621  00000+0  40983-1 0  9998,2 45695  53.0550 222.7699 0001349  56.0818 194.4617 15.37142722  5822
STARLINK-1422,45696,53.1217,0.0001834,15.22299627,497.6448688491255,500.16736826501165,1 45696U 20035AR  26026.83335647  .00061965  00000+0  26478-2 0  9990,2 45696  53.1217 243.7391 0001834  78.5785  12.1774 15.22299627  5772
STARLINK-1351,45697,53.066,0.00018,15.3517376,459.17349096871476,461.63536588294755,1 45697U 20035AS  26026.83335647  .01025918  00000+0  27239-1 0  9995,2 45697  53.0660 221.8023 0001800 110.2796 359.2594 15.35173760  5781
STARLINK-1398,45699,53.0411,0.0002827,15.73879935,345.9189183934177,349.72177467714846,1 45699U 20035AU  26026.83335647  .00138157  00000+0  94449-3 0  9995,2 45699  53.0411 150.3609 0002827 260.3971 306.9052 15.73879935  5995
STARLINK-1400,45700,53.0553,0.0001228,15.3795235,451.3264744489152,453.00399667796955,1 45700U 20035AV  26026.83335647  .01051935  00000+0  25495-1 0  9990,2 45700  53.0553 222.7155 0001228  91.4468  43.6935 15.37952350  5777
STARLINK-1403,45701,53.0542,0.0001462,15.06398543,546.2035368250035,548.2285100490571,1 45701U 20035AW  26026.41156075  .00000415  00000+0  46788-4 0  9998,2 45701  53.0542 226.4123 0001462  91.0775 269.0382 15.06398543312774
STARLINK-1407,45703,53.0364,0.0008659,15.52395848,403.8555412852338,415.6107748249533,1 45703U 20035AY  26026.83335647  .00173523  00000+0  27380-2 0  9996,2 45703  53.0364 158.5082 0008659 319.2921 105.8740 15.52395848  5893
STARLINK-1411,45706,53.0458,9.84e-05,15.54602721,402.64042215812333,403.9750104782952,1 45706U 20035BB  26026.80835185  .00083098  00000+0  12295-2 0  9994,2 45706  53.0458 184.8896 0000984 286.4025  73.6876 15.54602721313390
STARLINK-1423,45710,53.067,0.0001132,15.38644095,449.3449413893695,450.8908582986933,1 45710U 20035BF  26026.83335647  .00636377  00000+0  15298-1 0  9999,2 45710  53.0670 222.3512 0001132  95.1835 288.2744 15.38644095  5820
STARLINK-1433,45711,53.0548,0.0001297,15.42505779,437.83257467695057,439.600866532076,1 45711U 20035BG  26026.83335647  .01268840  00000+0  26426-1 0  9992,2 45711  53.0548 222.0636 0001297  87.1933 183.0997 15.42505779  5823
STARLINK-1434,45712,53.0518,0.0005641,15.21675053,496.9073840654901,504.6681870085331,1 45712U 20035BH  26026.21622326  .00014706  00000+0  65492-3 0  9995,2 45712  53.0518 216.0838 0005641  95.0445 265.1194 15.21675053312913
STARLINK-1465,45731,53.0556,0.0001341,15.3310942,465.6239351494596,467.45967800538347,1 45731U 20038B   26026.83335647  .01711060  00000+0  47633-1 0  9997,2 45731  53.0556  62.7328 0001341 101.2650   6.2409 15.33109420  5822
STARLINK-1471,45735,53.0508,0.0003175,15.45376239,428.11112249232065,432.43446271062203,1 45735U 20038F   26026.59969923  .00031736  00000+0  66008-3 0  9997,2 45735  53.0508 343.2144 0003175  92.2478 267.8892 15.45376239311019
STARLINK-1474,45738,53.0262,0.0005514,15.92251598,292.3034239619392,299.6636440868606,1 45738U 20038J   26026.83335647  .00313927  48422-4  92007-3 0  9995,2 45738  53.0262 277.7112 0005514 169.5920  59.1855 15.92251598  6041
STARLINK-1480,45741,53.0553,0.0006849,15.40621337,439.60169968210994,448.9470387756801,1 45741U 20038M   26026.35239555  .00113660  00000+0  27163-2 0  9994,2 45741  53.0553  58.7812 0006849  33.1585 326.9847 15.40621337309932
STARLINK-1500,45744,53.0386,0.0004078,15.32338761,466.0443475898528,471.6287392118502,1 45744U 20038Q   26026.70775715  .00030591  00000+0  97371-3 0  9999,2 45744  53.0386  29.3148 0004078  90.1779 269.9688 15.32338761310371
STARLINK-1504,45746,53.0256,0.000449,15.50167843,413.18491536635065,419.2862619509651,1 45746U 20038S   26026.17616581  .00042207  00000+0  73986-3 0  9990,2 45746  53.0256 346.8232 0004490  72.8942 287.2558 15.50167843310917
STARLINK-1506,45747,53.078,0.0004549,15.24775165,488.33567299674087,494.58563294141186,1 45747U 20038T   26026.53418263  .00010934  00000+0  44822-3 0  9997,2 45747  53.0780  37.1565 0004549  96.0381 264.1135 15.24775165310254
STARLINK-1464,45751,53.053,0.0001344,15.3373254,463.76811574884414,465.60746705277325,1 45751U 20038X   26026.83335647  .01654187  00000+0  45315-1 0  9990,2 45751  53.0530  42.8681 0001344 103.4255  22.3313 15.33732540  5766
STARLINK-1477,45754,53.0522,0.000111,15.11588955,530.5867162015384,532.120623130204,1 45754U 20038AA  26026.35798740  .00042972  00000+0  25048-2 0  9991,2 45754  53.0522  44.9757 0001110 258.1520 101.9347 15.11588955310126
STARLINK-1478,45755,53.0552,0.0003148,15.45923201,426.52399694005453,430.8095605991666,1 45755U 20038AB  26026.83335647  .00145627  00000+0  28987-2 0  9994,2 45755  53.0552  38.9575 0003148  67.4205  75.3778 15.45923201  5830
STARLINK-1484,45756,53.0065,0.0004358,15.80910576,324.9418991586872,330.7868499567512,1 45756U 20038AC  26026.83335647  .00142910  00000+0  71399-3 0  9993,2 45756  53.0065 269.9019 0004358 149.9141 155.2620 15.80910576  6024
STARLINK-1493,45759,53.054,0.0001275,15.27798662,481.519703684824,483.26913919729213,1 45759U 20038AF  26026.83335647  .01750082  00000+0  58156-1 0  9996,2 45759  53.0540  43.3667 0001275 107.9196   4.4130 15.27798662  5770
STARLINK-1494,45760,53.0525,0.0001827,15.66036466,369.0266104508628,371.49247454749184,1 45760U 20038AG  26025.96514378  .00088342  00000+0  84333-3 0  9991,2 45760  53.0525   2.7598 0001827  98.7234 261.3988 15.66036466310684
STARLINK-1502,45764,53.0536,0.0001267,15.21420647,500.68295180866426,502.42626566231866,1 45764U 20038AL  26026.83335647  .01110435  00000+0  45104-1 0  9993,2 45764  53.0536  43.7609 0001267  70.8871  20.5100 15.21420647  5775
STARLINK-1470,45772,53.048,8.81e-05,15.24310697,492.2507235304902,493.4613925073136,1 45772U 20038AU  26026.23544988  .00045881  00000+0  18547-2 0  9999,2 45772  53.0480  10.7791 0000881 117.0318 243.0769 15.24310697310597
STARLINK-1482,45773,53.0693,0.0001155,15.10139844,534.9745793728844,536.5716926142986,1 45773U 20038AV  26026.83335647  .01239240  00000+0  69530-1 0  9998,2 45773  53.0693  24.4854 0001155 105.9863 160.5267 15.10139844  5777
STARLINK-1496,45780,53.0558,0.0006592,15.40306208,440.7069153397506,449.7028092510009,1 45780U 20038BC  26026.83335647  .00166006  00000+0  39773-2 0  9991,2 45780  53.0558  16.9589 0006592  57.7082 282.8620 15.40306208  5890
STARLINK-1497,45781,53.0273,0.0007504,15.94875662,283.65809758480646,293.66362781714815,1 45781U 20038BD  26026.83335647  .00539871  12981-3  13704-2 0  9997,2 45781  53.0273 289.9830 0007504 138.6005 198.3396 15.94875662  5866
